     2.10           G;GLONASS NAV DATA  R:GLONASS           RINEX VERSION / TYPE
SthRinex220811      SouthGnss           13-Sep-22 01:25     PGM / RUN BY / DATE
    18                                                      LEAP SECONDS        
                                                            END OF HEADER       
24 22  6 19 20 15  0.0 9.950529783964E-05 1.818989403546E-12 7.350000000000E+04 
   -1.535922802734E+04 2.474521636963E+00 0.000000000000E+00 0.000000000000E+00 
   -2.427924316406E+03-1.245327949524E+00-0.000000000000E+00 2.000000000000E+00 
    2.023354882813E+04 1.728258132935E+00-1.862645149231E-09 0.000000000000E+00 
 6 22  6 19 20 15  0.0-5.474314093590E-05-1.818989403546E-12 7.350000000000E+04 
    1.002784375000E+04 1.125173568726E-01-0.000000000000E+00 0.000000000000E+00 
    1.140259423828E+04 2.804825782776E+00-9.313225746155E-10-4.000000000000E+00 
    2.048409277344E+04-1.617526054382E+00-2.793967723846E-09 0.000000000000E+00 
24 22  6 19 20 15  0.0 9.950529783964E-05 1.818989403546E-12 7.362000000000E+04 
   -1.535922802734E+04 2.474521636963E+00 0.000000000000E+00 0.000000000000E+00 
   -2.427924316406E+03-1.245327949524E+00-0.000000000000E+00 2.000000000000E+00 
    2.023354882813E+04 1.728258132935E+00-1.862645149231E-09 0.000000000000E+00 
 6 22  6 19 20 15  0.0-5.474314093590E-05-1.818989403546E-12 7.362000000000E+04 
    1.002784375000E+04 1.125173568726E-01-0.000000000000E+00 0.000000000000E+00 
    1.140259423828E+04 2.804825782776E+00-9.313225746155E-10-4.000000000000E+00 
    2.048409277344E+04-1.617526054382E+00-2.793967723846E-09 0.000000000000E+00 
24 22  6 19 20 15  0.0 9.950529783964E-05 1.818989403546E-12 7.365000000000E+04 
   -1.535922802734E+04 2.474521636963E+00 0.000000000000E+00 0.000000000000E+00 
   -2.427924316406E+03-1.245327949524E+00-0.000000000000E+00 2.000000000000E+00 
    2.023354882813E+04 1.728258132935E+00-1.862645149231E-09 0.000000000000E+00 
 6 22  6 19 20 15  0.0-5.474314093590E-05-1.818989403546E-12 7.365000000000E+04 
    1.002784375000E+04 1.125173568726E-01-0.000000000000E+00 0.000000000000E+00 
    1.140259423828E+04 2.804825782776E+00-9.313225746155E-10-4.000000000000E+00 
    2.048409277344E+04-1.617526054382E+00-2.793967723846E-09 0.000000000000E+00 
24 22  6 19 20 15  0.0 9.950529783964E-05 1.818989403546E-12 7.377000000000E+04 
   -1.535922802734E+04 2.474521636963E+00 0.000000000000E+00 0.000000000000E+00 
   -2.427924316406E+03-1.245327949524E+00-0.000000000000E+00 2.000000000000E+00 
    2.023354882813E+04 1.728258132935E+00-1.862645149231E-09 0.000000000000E+00 
 6 22  6 19 20 15  0.0-5.474314093590E-05-1.818989403546E-12 7.377000000000E+04 
    1.002784375000E+04 1.125173568726E-01-0.000000000000E+00 0.000000000000E+00 
    1.140259423828E+04 2.804825782776E+00-9.313225746155E-10-4.000000000000E+00 
    2.048409277344E+04-1.617526054382E+00-2.793967723846E-09 0.000000000000E+00 
 9 22  6 19 20 45  0.0 6.138533353806E-05 2.728484105319E-12 7.380000000000E+04 
    2.152478027344E+04-7.901277542114E-01-0.000000000000E+00 0.000000000000E+00 
    1.210125634766E+04-4.342632293701E-01-9.313225746155E-10-2.000000000000E+00 
    6.574307128906E+03 3.388995170593E+00-9.313225746155E-10 0.000000000000E+00 
24 22  6 19 20 45  0.0 9.950809180737E-05 1.818989403546E-12 7.380000000000E+04 
   -1.082417675781E+04 2.515432357788E+00 0.000000000000E+00 0.000000000000E+00 
   -5.164638183594E+03-1.781901359558E+00-9.313225746155E-10 2.000000000000E+00 
    2.252310498047E+04 7.991828918457E-01-1.862645149231E-09 0.000000000000E+00 
 6 22  6 19 20 45  0.0-5.474686622620E-05-1.818989403546E-12 7.380000000000E+04 
    1.054741162109E+04 4.381217956543E-01-9.313225746155E-10 0.000000000000E+00 
    1.600118945313E+04 2.264522552490E+00-0.000000000000E+00-4.000000000000E+00 
    1.681745800781E+04-2.430062294006E+00-2.793967723846E-09 0.000000000000E+00 
 7 22  6 19 20 45  0.0 3.666523844004E-05 9.094947017729E-13 7.380000000000E+04 
    1.081266015625E+04 3.752841949463E-01 0.000000000000E+00 0.000000000000E+00 
   -1.663951660156E+03 3.126852035522E+00-1.862645149231E-09 5.000000000000E+00 
    2.308498486328E+04 4.559898376465E-02-1.862645149231E-09 0.000000000000E+00 
 5 22  6 19 20 45  0.0 9.492505341768E-05 9.094947017729E-13 7.380000000000E+04 
    2.122777343750E+03 1.581916809082E-01-1.862645149231E-09 0.000000000000E+00 
    2.535243017578E+04-2.516994476318E-01 1.862645149231E-09 1.000000000000E+00 
   -1.677677734375E+03-3.574143409729E+00-9.313225746155E-10 0.000000000000E+00 
15 22  6 19 20 45  0.0 9.526312351227E-05-0.000000000000E+00 7.380000000000E+04 
   -1.115576123047E+04-2.782720565796E+00-0.000000000000E+00 0.000000000000E+00 
    6.736084960938E+03-1.118823051453E+00-0.000000000000E+00 0.000000000000E+00 
    2.194903173828E+04-1.072610855103E+00-2.793967723846E-09 0.000000000000E+00 
24 22  6 19 20 45  0.0 9.950809180737E-05 1.818989403546E-12 7.392000000000E+04 
   -1.082417675781E+04 2.515432357788E+00 0.000000000000E+00 0.000000000000E+00 
   -5.164638183594E+03-1.781901359558E+00-9.313225746155E-10 2.000000000000E+00 
    2.252310498047E+04 7.991828918457E-01-1.862645149231E-09 0.000000000000E+00 
 6 22  6 19 20 45  0.0-5.474686622620E-05-1.818989403546E-12 7.392000000000E+04 
    1.054741162109E+04 4.381217956543E-01-9.313225746155E-10 0.000000000000E+00 
    1.600118945313E+04 2.264522552490E+00-0.000000000000E+00-4.000000000000E+00 
    1.681745800781E+04-2.430062294006E+00-2.793967723846E-09 0.000000000000E+00 
24 22  6 19 20 45  0.0 9.950809180737E-05 1.818989403546E-12 7.395000000000E+04 
   -1.082417675781E+04 2.515432357788E+00 0.000000000000E+00 0.000000000000E+00 
   -5.164638183594E+03-1.781901359558E+00-9.313225746155E-10 2.000000000000E+00 
    2.252310498047E+04 7.991828918457E-01-1.862645149231E-09 0.000000000000E+00 
 6 22  6 19 20 45  0.0-5.474686622620E-05-1.818989403546E-12 7.395000000000E+04 
    1.054741162109E+04 4.381217956543E-01-9.313225746155E-10 0.000000000000E+00 
    1.600118945313E+04 2.264522552490E+00-0.000000000000E+00-4.000000000000E+00 
    1.681745800781E+04-2.430062294006E+00-2.793967723846E-09 0.000000000000E+00 
24 22  6 19 20 45  0.0 9.950809180737E-05 1.818989403546E-12 7.407000000000E+04 
   -1.082417675781E+04 2.515432357788E+00 0.000000000000E+00 0.000000000000E+00 
   -5.164638183594E+03-1.781901359558E+00-9.313225746155E-10 2.000000000000E+00 
    2.252310498047E+04 7.991828918457E-01-1.862645149231E-09 0.000000000000E+00 
 6 22  6 19 20 45  0.0-5.474686622620E-05-1.818989403546E-12 7.407000000000E+04 
    1.054741162109E+04 4.381217956543E-01-9.313225746155E-10 0.000000000000E+00 
    1.600118945313E+04 2.264522552490E+00-0.000000000000E+00-4.000000000000E+00 
    1.681745800781E+04-2.430062294006E+00-2.793967723846E-09 0.000000000000E+00 
24 22  6 19 20 45  0.0 9.950809180737E-05 1.818989403546E-12 7.410000000000E+04 
   -1.082417675781E+04 2.515432357788E+00 0.000000000000E+00 0.000000000000E+00 
   -5.164638183594E+03-1.781901359558E+00-9.313225746155E-10 2.000000000000E+00 
    2.252310498047E+04 7.991828918457E-01-1.862645149231E-09 0.000000000000E+00 
 6 22  6 19 20 45  0.0-5.474686622620E-05-1.818989403546E-12 7.410000000000E+04 
    1.054741162109E+04 4.381217956543E-01-9.313225746155E-10 0.000000000000E+00 
    1.600118945313E+04 2.264522552490E+00-0.000000000000E+00-4.000000000000E+00 
    1.681745800781E+04-2.430062294006E+00-2.793967723846E-09 0.000000000000E+00 
24 22  6 19 20 45  0.0 9.950809180737E-05 1.818989403546E-12 7.422000000000E+04 
   -1.082417675781E+04 2.515432357788E+00 0.000000000000E+00 0.000000000000E+00 
   -5.164638183594E+03-1.781901359558E+00-9.313225746155E-10 2.000000000000E+00 
    2.252310498047E+04 7.991828918457E-01-1.862645149231E-09 0.000000000000E+00 
 6 22  6 19 20 45  0.0-5.474686622620E-05-1.818989403546E-12 7.422000000000E+04 
    1.054741162109E+04 4.381217956543E-01-9.313225746155E-10 0.000000000000E+00 
    1.600118945313E+04 2.264522552490E+00-0.000000000000E+00-4.000000000000E+00 
    1.681745800781E+04-2.430062294006E+00-2.793967723846E-09 0.000000000000E+00 
24 22  6 19 20 45  0.0 9.950809180737E-05 1.818989403546E-12 7.425000000000E+04 
   -1.082417675781E+04 2.515432357788E+00 0.000000000000E+00 0.000000000000E+00 
   -5.164638183594E+03-1.781901359558E+00-9.313225746155E-10 2.000000000000E+00 
    2.252310498047E+04 7.991828918457E-01-1.862645149231E-09 0.000000000000E+00 
 6 22  6 19 20 45  0.0-5.474686622620E-05-1.818989403546E-12 7.425000000000E+04 
    1.054741162109E+04 4.381217956543E-01-9.313225746155E-10 0.000000000000E+00 
    1.600118945313E+04 2.264522552490E+00-0.000000000000E+00-4.000000000000E+00 
    1.681745800781E+04-2.430062294006E+00-2.793967723846E-09 0.000000000000E+00 
24 22  6 19 20 45  0.0 9.950809180737E-05 1.818989403546E-12 7.437000000000E+04 
   -1.082417675781E+04 2.515432357788E+00 0.000000000000E+00 0.000000000000E+00 
   -5.164638183594E+03-1.781901359558E+00-9.313225746155E-10 2.000000000000E+00 
    2.252310498047E+04 7.991828918457E-01-1.862645149231E-09 0.000000000000E+00 
 6 22  6 19 20 45  0.0-5.474686622620E-05-1.818989403546E-12 7.437000000000E+04 
    1.054741162109E+04 4.381217956543E-01-9.313225746155E-10 0.000000000000E+00 
    1.600118945313E+04 2.264522552490E+00-0.000000000000E+00-4.000000000000E+00 
    1.681745800781E+04-2.430062294006E+00-2.793967723846E-09 0.000000000000E+00 
24 22  6 19 20 45  0.0 9.950809180737E-05 1.818989403546E-12 7.440000000000E+04 
   -1.082417675781E+04 2.515432357788E+00 0.000000000000E+00 0.000000000000E+00 
   -5.164638183594E+03-1.781901359558E+00-9.313225746155E-10 2.000000000000E+00 
    2.252310498047E+04 7.991828918457E-01-1.862645149231E-09 0.000000000000E+00 
